FLOCK 2K-35             
1 42877U 17042BE  18005.61214551  .00001769  00000-0  53782-4 0  9993
2 42877  96.9945 270.4680 0011983 338.1503  21.9229 15.35224297 26681
FLOCK 2K-34             
1 42878U 17042BF  18006.19787625  .00006924  00000-0  20429-3 0  9994
2 42878  96.9940 271.0215 0011941 337.4360  22.6358 15.35214129 26779
FLOCK 2K-33             
1 42879U 17042BG  18005.54293346  .00004501  00000-0  13352-3 0  9991
2 42879  96.9942 270.4069 0012187 339.6920  20.3838 15.35231320 26670
FLOCK 2K-28             
1 42880U 17042BH  18005.67535248  .00001570  00000-0  49875-4 0  9990
2 42880  96.9951 270.3933 0012352 337.8834  22.1875 15.33976491 26684
LEMUR-2-ARTFISCHER      
1 42881U 17042BJ  18005.44242379  .00002610  00000-0  79579-4 0  9996
2 42881  96.9969 270.3085 0012984 340.8399  19.2355 15.34718192 26642
FLOCK 2K-27             
1 42882U 17042BK  18005.80242984  .00001368  00000-0  42109-4 0  9997
2 42882  96.9948 270.6624 0012375 338.8742  21.1990 15.35197904 26713
FLOCK 2K-26             
1 42883U 17042BL  18005.53902785  .00004739  00000-0  14023-3 0  9998
2 42883  96.9940 270.4132 0012196 338.2912  21.7814 15.35277453 26676
FLOCK 2K-25             
1 42884U 17042BM  18006.19644738  .00005372  00000-0  15898-3 0  9998
2 42884  96.9938 271.0207 0012043 337.1064  22.9642 15.35217604 26776
FLOCK 2K-20             
1 42885U 17042BN  18006.18955513  .00002982  00000-0  89074-4 0  9996
2 42885  96.9942 271.0372 0012149 335.3627  24.7035 15.35270873 26770
FLOCK 2K-19             
1 42886U 17042BP  18006.19260119  .00003676  00000-0  10928-3 0  9991
2 42886  96.9942 271.0356 0012220 336.6113  23.4574 15.35277898 26775
FLOCK 2K-18             
1 42887U 17042BQ  18005.78980408  .00006752  00000-0  19891-3 0  9992
2 42887  96.9941 270.6741 0012337 336.5633  23.5048 15.35266354 26719
FLOCK 2K-17             
1 42888U 17042BR  18006.18596864  .00003008  00000-0  89923-4 0  9992
2 42888  96.9935 271.0290 0012207 333.5822  26.4799 15.35241881 26779
FLOCK 2K-16             
1 42889U 17042BS  18005.73090688  .00005781  00000-0  17083-3 0  9993
2 42889  96.9941 270.6070 0011886 335.5102  24.5576 15.35238092 26708
FLOCK 2K-15             
1 42890U 17042BT  18005.26699887  .00004211  00000-0  12493-3 0  9996
2 42890  96.9948 270.1927 0012211 338.1572  21.9150 15.35260732 26633
FLOCK 2K-13             
1 42891U 17042BU  18005.53809740  .00001243  00000-0  38676-4 0  9992
2 42891  96.9945 270.4147 0012469 332.6197  27.4389 15.35013854 26675
FLOCK 2K-14             
1 42892U 17042BV  18005.72627050  .00004144  00000-0  12302-3 0  9996
2 42892  96.9936 270.6020 0012138 334.7665  25.2985 15.35253075 26707
FLOCK 2K-12             
1 42893U 17042BW  18005.26390265  .00003228  00000-0  96244-4 0  9991
2 42893  96.9950 270.1910 0012385 339.1327  20.9410 15.35268988 26631
FLOCK 2K-11             
1 42894U 17042BX  18005.53222238  .00004800  00000-0  14227-3 0  9993
2 42894  96.9944 270.4268 0012181 332.6346  27.4255 15.35221958 26676
FLOCK 2K-10             
1 42895U 17042BY  18005.52601296  .00002465  00000-0  74057-4 0  9991
2 42895  96.9941 270.4253 0012309 335.7892  24.2773 15.35247427 26679
FLOCK 2K-09             
1 42896U 17042BZ  18005.52287049  .00003880  00000-0  11526-3 0  9991
2 42896  96.9945 270.4384 0012182 335.7076  24.3593 15.35268011 26844
FLOCK 2K-06             
1 42897U 17042CA  18006.08169645  .00002061  00000-0  62196-4 0  9995
2 42897  96.9942 270.8841 0011041 348.2882  11.8104 15.35292042 26751
SILU-1 (SILKROAD 1)     
1 42903U 17021F   18006.06878399  .00012788  00000-0  12964-3 0  9995
2 42903  42.7792 225.1437 0010420 246.1623 248.5170 15.65089024 24470
FLOCK 3M-1              
1 42995U 17068J   18005.85957482  .00000582  00000-0  31719-4 0  9993
2 42995  97.3444 123.1153 0017510   0.4059 359.7186 15.18090182 10005
FLOCK 3M-3              
1 42996U 17068K   18006.05033424  .00000628  00000-0  33820-4 0  9994
2 42996  97.3400 123.2763 0016875   0.6061 359.5191 15.18252544 10033
FLOCK 3M-4              
1 42997U 17068L   18006.11200209  .00000867  00000-0  45287-4 0  9994
2 42997  97.3612 123.5395 0016656   1.5326 358.5956 15.18402193 10040
FLOCK 3M-2              
1 42998U 17068M   18006.16554960  .00000696  00000-0  36732-4 0  9991
2 42998  97.3512 123.5282 0014802 357.8029   2.3138 15.18638874 10057
ECAMSAT                 
1 43019U 98067NG  18006.19963454  .00004002  00000-0  64861-4 0  9998
2 43019  51.6404 105.9581 0004828 292.5442  67.5038 15.55331032 93322
ASTERIA                 
1 43020U 98067NH  18005.80796697  .00009466  00000-0  14170-3 0  9996
2 43020  51.6403 107.8447 0002195 289.1518  70.9236 15.55713016  7189
DELLINGR (RBLE)         
1 43021U 98067NJ  18006.13577887  .00005412  00000-0  85094-4 0  9993
2 43021  51.6404 106.2829 0001911 289.3128  70.7657 15.55363669  7238
TECHEDSAT 6             
1 43026U 98067NK  18006.19002888  .00043799  00000-0  53261-3 0  9998
2 43026  51.6386 105.1445 0003092 324.8625  35.2164 15.60100427  7150
OSIRIS-3U               
1 43027U 98067NL  18006.23862802  .00014846  00000-0  20938-3 0  9990
2 43027  51.6399 105.4704 0003344 270.5394  89.5214 15.56828359  7138
2017-071E               
1 43041U 17071E   18005.50598751  .00005559  00000-0  15522-3 0  9994
2 43041  51.6398 113.2825 0000106 318.3575  41.7400 15.38278489  6857
2017-071F               
1 43042U 17071F   18005.51485369  .00002562  00000-0  78436-4 0  9991
2 43042  51.6400 113.3389 0005673  41.5317 318.6096 15.37758807  4560
2017-071G               
1 43043U 17071G   18005.51472808  .00002656  00000-0  80902-4 0  9991
2 43043  51.6401 113.3383 0005649  41.3836 318.7575 15.37767427  4531
2017-071H               
1 43044U 17071H   18005.51330911  .00005406  00000-0  15317-3 0  9993
2 43044  51.6395 113.3296 0005448  39.6882 320.4499 15.37885597  4539
2017-071J               
1 43045U 17071J   18005.50674097  .00005531  00000-0  15463-3 0  9990
2 43045  51.6396 113.2872 0004626  29.6924 330.4322 15.38255443  4575
2017-071K               
1 43046U 17071K   18005.50575345  .00005035  00000-0  14154-3 0  9992
2 43046  51.6408 113.2832 0004413  28.0442 332.0779 15.38290583  4587
2017-071L               
1 43047U 17071L   18005.44842902  .00004903  00000-0  13981-3 0  9992
2 43047  51.6398 113.6470 0003757  69.7563 290.3824 15.37902693  4560
2017-071M               
1 43048U 17071M   18005.83848357  .00005063  00000-0  14414-3 0  9996
2 43048  51.6402 111.7520 0003716  71.2209 288.9177 15.37880386  4627
2017-071N               
1 43049U 17071N   18005.51130645  .00002665  00000-0  80685-4 0  9995
2 43049  51.6401 113.3161 0003150  62.2074 297.9229 15.37933122  4533
2017-071P               
1 43050U 17071P   18005.51062675  .00004213  00000-0  12130-3 0  9994
2 43050  51.6401 113.3130 0003053  58.6078 301.5204 15.37985847  4532
2017-071Q               
1 43051U 17071Q   18005.51261747  .00005166  00000-0  14659-3 0  9992
2 43051  51.6396 113.3255 0001378 159.9516 200.1522 15.37935499  4528
2017-071R               
1 43052U 17071R   18005.70520657  .00003148  00000-0  93226-4 0  9998
2 43052  51.6404 112.3621 0003063  59.7995 300.3292 15.37997849  4553
2017-071S               
1 43053U 17071S   18005.51294813  .00004289  00000-0  12363-3 0  9999
2 43053  51.6399 113.3274 0001452 162.0622 198.0413 15.37897916  4536
2017-071T               
1 43054U 17071T   18006.15609528  .00004267  00000-0  12168-3 0  9993
2 43054  51.6399 110.1232 0000043  30.1943 329.9044 15.38243588  4639
